     2.100          NAVIGATION                              RINEX VERSION / TYPE
fic2rin                                 05/06/2012 00:10:42 PGM / RUN BY / DATE
                                                            END OF HEADER
22 12  5  6  0  0  0.0  .143676064909D-03  .227373675443D-12  .000000000000D+00
     .290000000000D+02  .147000000000D+03  .473091134716D-08  .235892018599D+01
     .759400427341D-05  .601032190025D-02  .119712203741D-04  .515369220352D+04
     .000000000000D+00  .968575477600D-07  .207690154946D+00 -.109896063805D-06
     .928108515262D+00  .130562500000D+03 -.201301994581D+01 -.806319300721D-08
     .106075847056D-09  .100000000000D+01  .168700000000D+04  .000000000000D+00
     .240000000000D+01  .000000000000D+00 -.167638063431D-07  .290000000000D+02
     .597606000000D+06  .400000000000D+01
23 12  5  6  0  0  0.0  .208131037652D-03 -.363797880709D-11  .000000000000D+00
     .740000000000D+02  .759687500000D+02  .489734685130D-08  .471423051337D+00
     .397488474846D-05  .779225735459D-02  .195577740669D-06  .515363725090D+04
     .000000000000D+00  .558793544769D-07  .125540147322D+01  .968575477600D-07
     .960198682484D+00  .373937500000D+03 -.301854934814D+01 -.875250743421D-08
     .306084178206D-09  .100000000000D+01  .168700000000D+04  .000000000000D+00
     .240000000000D+01  .000000000000D+00 -.200234353542D-07  .740000000000D+02
     .597606000000D+06  .400000000000D+01
25 12  5  6  0  0  0.0  .336770899594D-04  .454747350886D-12  .000000000000D+00
     .570000000000D+02 -.351562500000D+02  .409374194936D-08 -.251373586166D+01
    -.188127160072D-05  .159265717957D-02  .138804316521D-04  .515372702026D+04
     .000000000000D+00 -.298023223877D-07 -.295643765300D+01 -.186264514923D-07
     .968725816919D+00  .114843750000D+03  .641826913501D+00 -.766603360678D-08
     .532522181686D-09  .100000000000D+01  .168700000000D+04  .000000000000D+00
     .240000000000D+01  .000000000000D+00  .558793544769D-08  .570000000000D+02
     .597606000000D+06  .400000000000D+01
26 12  5  6  0  0  0.0 -.399123877287D-03 -.520685716765D-10  .000000000000D+00
     .860000000000D+02  .485625000000D+02  .438196824085D-08  .323637267580D+00
     .245496630669D-05  .209681994747D-01  .118277966976D-05  .515366151428D+04
     .000000000000D+00 -.251457095146D-06  .132772747158D+01  .128522515297D-06
     .983266122512D+00  .369625000000D+03  .119201704960D+01 -.871679166079D-08
     .127148153374D-09  .100000000000D+01  .168700000000D+04  .000000000000D+00
     .240000000000D+01  .000000000000D+00 -.605359673500D-08  .860000000000D+02
     .597606000000D+06  .400000000000D+01
27 12  5  6  0  0  0.0  .384826678783D-03  .409272615798D-11  .000000000000D+00
     .300000000000D+02 -.143375000000D+03  .413767235066D-08  .122349308381D+01
    -.792555510998D-05  .216996718664D-01  .487826764584D-05  .515374151230D+04
     .000000000000D+00  .339001417160D-06  .225207719000D+01 -.430271029472D-06
     .981946789842D+00  .299250000000D+03 -.108918086919D+01 -.807605068564D-08
    -.334656796942D-09  .100000000000D+01  .168700000000D+04  .000000000000D+00
     .240000000000D+01  .000000000000D+00 -.419095158577D-08  .300000000000D+02
     .597606000000D+06  .400000000000D+01
28 12  5  6  0  0  0.0  .140924472362D-03  .409272615798D-11  .000000000000D+00
     .590000000000D+02 -.398437500000D+02  .383301680339D-08  .228253279350D+01
    -.214762985706D-05  .178596932674D-01  .127982348204D-04  .515363440132D+04
     .000000000000D+00  .199303030968D-06 -.289775094168D+01 -.299885869026D-06
     .979060992289D+00  .139437500000D+03 -.182951708883D+01 -.726780273316D-08
     .467162316328D-09  .100000000000D+01  .168700000000D+04  .000000000000D+00
     .340000000000D+01  .000000000000D+00 -.107102096081D-07  .590000000000D+02
     .597606000000D+06  .400000000000D+01
29 12  5  6  0  0  0.0  .310099683702D-03  .386535248253D-11  .000000000000D+00
     .990000000000D+02  .206875000000D+02  .503235247482D-08 -.177613506183D+01
     .976026058197D-06  .230068154633D-02  .484287738800D-05  .515357626343D+04
     .000000000000D+00 -.707805156708D-07 -.185554322070D+01  .502914190292D-07
     .962913990101D+00  .285187500000D+03 -.114745591537D+01 -.827463038585D-08
     .171435712414D-09  .100000000000D+01  .168700000000D+04  .000000000000D+00
     .340000000000D+01  .000000000000D+00 -.931322574615D-08  .990000000000D+02
     .597606000000D+06  .400000000000D+01
30 12  5  6  0  0  0.0 -.165704172105D-03 -.181898940355D-10  .000000000000D+00
     .570000000000D+02 -.692812500000D+02  .432625163432D-08  .158370329020D+01
    -.368617475033D-05  .110058365390D-01  .141113996506D-04  .515365534592D+04
     .000000000000D+00 -.447034835815D-07 -.304707629311D+01 -.251457095146D-06
     .959988431897D+00  .107906250000D+03  .155989212457D+01 -.775389440940D-08
     .458233372974D-09  .100000000000D+01  .168700000000D+04  .000000000000D+00
     .965000000000D+01  .000000000000D+00 -.419095158577D-08  .570000000000D+02
     .597606000000D+06  .400000000000D+01
31 12  5  6  0  0  0.0  .238929409534D-03  .420641299570D-11  .000000000000D+00
     .590000000000D+02 -.160937500000D+03  .421231831711D-08 -.112861798656D+01
    -.854954123497D-05  .780385080725D-02  .661797821522D-05  .515364703751D+04
     .000000000000D+00 -.689178705215D-07  .230761090763D+01 -.633299350739D-07
     .980844132895D+00  .264750000000D+03 -.864409613993D+00 -.821819946385D-08
    -.315727437029D-09  .100000000000D+01  .168700000000D+04  .000000000000D+00
     .240000000000D+01  .000000000000D+00 -.130385160446D-07  .590000000000D+02
     .597606000000D+06  .400000000000D+01
32 12  5  6  0  0  0.0 -.440614297986D-03 -.409272615798D-11  .000000000000D+00
     .520000000000D+02  .137312500000D+03  .431053669401D-08 -.539080967343D+00
     .710040330887D-05  .118290433893D-01  .116843730211D-04  .515369960976D+04
     .000000000000D+00 -.856816768646D-07  .282381614305D+00 -.284984707832D-06
     .952309040934D+00  .152718750000D+03 -.582973218855D+00 -.805997858760D-08
     .188936441390D-09  .100000000000D+01  .168700000000D+04  .000000000000D+00
     .240000000000D+01  .000000000000D+00 -.279396772385D-08  .520000000000D+02
     .597606000000D+06  .400000000000D+01
11 12  5  5 23 59 44.0 -.258383806795D-03 -.375166564481D-11  .000000000000D+00
     .100000000000D+02 -.441250000000D+02  .674885254537D-08 -.953272455876D+00
    -.221282243729D-05  .128722020891D-01  .565126538277D-05  .515366583824D+04
     .604784000000D+06  .782310962677D-07 -.100411108130D+01  .299885869026D-06
     .887782907767D+00  .229062500000D+03  .104205011058D+01 -.926788604465D-08
    -.707529471442D-09  .100000000000D+01  .168600000000D+04  .000000000000D+00
     .240000000000D+01  .000000000000D+00 -.116415321827D-07  .100000000000D+02
     .598596000000D+06  .400000000000D+01
